{"type": "FeatureCollection", "features": [ {"type": "Feature", "properties": {"norad_id": 66737, "name": "FLOCK 4H-34", "group": "last-30-days", "lat": -74.35781008863982, "lon": -139.35055653763197, "alt_km": 518.6679699548558, "timestamp": "2025-12-22T20:43:44.565260+00:00", "meta": {"OBJECT_NAME": "FLOCK 4H-34", "OBJECT_ID": "2025-276BZ", "EPOCH": "2025-12-22T11:41:40.904736", "MEAN_MOTION": 15.18148655, "ECCENTRICITY": 0.00024519, "INCLINATION": 97.4444, "RA_OF_ASC_NODE": 68.1181, "ARG_OF_PERICENTER": 170.0556, "MEAN_ANOMALY": 190.0727, "EPHEMERIS_TYPE": 0, "CLASSIFICATION_TYPE": "U", "NORAD_CAT_ID": 66737, "ELEMENT_SET_NO": 999, "REV_AT_EPOCH": 285, "BSTAR": 0.00055532814, "MEAN_MOTION_DOT": 0.00011282, "MEAN_MOTION_DDOT": 0}, "tle": {"line1": "1 66737U 25276BZ  25356.48727899  .00011282  00000+0  55533-3 0  9993", "line2": "2 66737  97.4444  68.1181 0002451 170.0556 190.0727 15.18148655  2859"}}, "geometry": {"type": "Point", "coordinates": [-139.35055653763197, -74.35781008863982]}}, {"type": "Feature", "properties": {"norad_id": 66738, "name": "FLOCK 4H-35", "group": "last-30-days", "lat": -81.09548289519778, "lon": -168.04867177573848, "alt_km": 519.2158456763391, "timestamp": "2025-12-22T20:43:44.565269+00:00", "meta": {"OBJECT_NAME": "FLOCK 4H-35", "OBJECT_ID": "2025-276CA", "EPOCH": "2025-12-22T11:39:21.928608", "MEAN_MOTION": 15.18240155, "ECCENTRICITY": 0.00025349, "INCLINATION": 97.4408, "RA_OF_ASC_NODE": 68.1074, "ARG_OF_PERICENTER": 152.1574, "MEAN_ANOMALY": 207.9796, "EPHEMERIS_TYPE": 0, "CLASSIFICATION_TYPE": "U", "NORAD_CAT_ID": 66738, "ELEMENT_SET_NO": 999, "REV_AT_EPOCH": 289, "BSTAR": 0.00056054622, "MEAN_MOTION_DOT": 0.00011419, "MEAN_MOTION_DDOT": 0}, "tle": {"line1": "1 66738U 25276CA  25356.48567047  .00011419  00000+0  56055-3 0  9993", "line2": "2 66738  97.4408  68.1074 0002534 152.1574 207.9796 15.18240155  2890"}}, "geometry": {"type": "Point", "coordinates": [-168.04867177573848, -81.09548289519778]}}, {"type": "Feature", "properties": {"norad_id": 66739, "name": "FLOCK 4H-36", "group": "last-30-days", "lat": -62.12292049767691, "lon": -125.82679917345585, "alt_km": 518.2319856390613, "timestamp": "2025-12-22T20:43:44.565283+00:00", "meta": {"OBJECT_NAME": "FLOCK 4H-36", "OBJECT_ID": "2025-276CB", "EPOCH": "2025-12-22T11:45:05.765184", "MEAN_MOTION": 15.17988701, "ECCENTRICITY": 0.0002448, "INCLINATION": 97.4451, "RA_OF_ASC_NODE": 68.1182, "ARG_OF_PERICENTER": 185.1045, "MEAN_ANOMALY": 175.0165, "EPHEMERIS_TYPE": 0, "CLASSIFICATION_TYPE": "U", "NORAD_CAT_ID": 66739, "ELEMENT_SET_NO": 999, "REV_AT_EPOCH": 360, "BSTAR": 0.00067665641, "MEAN_MOTION_DOT": 0.00013702, "MEAN_MOTION_DDOT": 0}, "tle": {"line1": "1 66739U 25276CB  25356.48965006  .00013702  00000+0  67666-3 0  9998", "line2": "2 66739  97.4451  68.1182 0002448 185.1045 175.0165 15.17988701  3602"}}, "geometry": {"type": "Point", "coordinates": [-125.82679917345585, -62.12292049767691]}}, {"type": "Feature", "properties": {"norad_id": 66740, "name": "TRANSPORTER-15 CC", "group": "last-30-days", "lat": -39.15324465481302, "lon": -117.64159295635048, "alt_km": 514.0295108630335, "timestamp": "2025-12-22T20:43:44.565294+00:00", "meta": {"OBJECT_NAME": "TRANSPORTER-15 CC", "OBJECT_ID": "2025-276CC", "EPOCH": "2025-12-22T13:26:31.007040", "MEAN_MOTION": 15.18809283, "ECCENTRICITY": 7.986e-05, "INCLINATION": 97.4412, "RA_OF_ASC_NODE": 68.1683, "ARG_OF_PERICENTER": 236.4423, "MEAN_ANOMALY": 123.6735, "EPHEMERIS_TYPE": 0, "CLASSIFICATION_TYPE": "U", "NORAD_CAT_ID": 66740, "ELEMENT_SET_NO": 999, "REV_AT_EPOCH": 361, "BSTAR": 0.034383218, "MEAN_MOTION_DOT": 0.00772186, "MEAN_MOTION_DDOT": 0}, "tle": {"line1": "1 66740U 25276CC  25356.56008110  .00772186  00000+0  34383-1 0  9999", "line2": "2 66740  97.4412  68.1683 0000798 236.4423 123.6735 15.18809283  3614"}}, "geometry": {"type": "Point", "coordinates": [-117.64159295635048, -39.15324465481302]}}, {"type": "Feature", "properties": {"norad_id": 66741, "name": "TRANSPORTER-15 CD", "group": "last-30-days", "lat": -30.681409509447374, "lon": -115.99162120456442, "alt_km": 518.322285290581, "timestamp": "2025-12-22T20:43:44.565308+00:00", "meta": {"OBJECT_NAME": "TRANSPORTER-15 CD", "OBJECT_ID": "2025-276CD", "EPOCH": "2025-12-21T20:03:53.371296", "MEAN_MOTION": 15.17530287, "ECCENTRICITY": 0.0001537, "INCLINATION": 97.4414, "RA_OF_ASC_NODE": 67.4463, "ARG_OF_PERICENTER": 203.7117, "MEAN_ANOMALY": 156.4047, "EPHEMERIS_TYPE": 0, "CLASSIFICATION_TYPE": "U", "NORAD_CAT_ID": 66741, "ELEMENT_SET_NO": 999, "REV_AT_EPOCH": 350, "BSTAR": 0.00013950865, "MEAN_MOTION_DOT": 2.732e-05, "MEAN_MOTION_DDOT": 0}, "tle": {"line1": "1 66741U 25276CD  25355.83603439  .00002732  00000+0  13951-3 0  9997", "line2": "2 66741  97.4414  67.4463 0001537 203.7117 156.4047 15.17530287  3506"}}, "geometry": {"type": "Point", "coordinates": [-115.99162120456442, -30.681409509447374]}}, {"type": "Feature", "properties": {"norad_id": 66742, "name": "TRANSPORTER-15 CE", "group": "last-30-days", "lat": -39.654873167217396, "lon": -117.76161218626245, "alt_km": 518.3347858003526, "timestamp": "2025-12-22T20:43:44.565318+00:00", "meta": {"OBJECT_NAME": "TRANSPORTER-15 CE", "OBJECT_ID": "2025-276CE", "EPOCH": "2025-12-22T13:26:00.291840", "MEAN_MOTION": 15.17698799, "ECCENTRICITY": 0.00016428, "INCLINATION": 97.4406, "RA_OF_ASC_NODE": 68.1585, "ARG_OF_PERICENTER": 193.4649, "MEAN_ANOMALY": 166.6541, "EPHEMERIS_TYPE": 0, "CLASSIFICATION_TYPE": "U", "NORAD_CAT_ID": 66742, "ELEMENT_SET_NO": 999, "REV_AT_EPOCH": 361, "BSTAR": 0.00055886624, "MEAN_MOTION_DOT": 0.00011208, "MEAN_MOTION_DDOT": 0}, "tle": {"line1": "1 66742U 25276CE  25356.55972560  .00011208  00000+0  55887-3 0  9994", "line2": "2 66742  97.4406  68.1585 0001642 193.4649 166.6541 15.17698799  3610"}}, "geometry": {"type": "Point", "coordinates": [-117.76161218626245, -39.654873167217396]}}, {"type": "Feature", "properties": {"norad_id": 66743, "name": "TRANSPORTER-15 CF", "group": "last-30-days", "lat": -19.465149757965513, "lon": -114.19832539371383, "alt_km": 520.3185083946937, "timestamp": "2025-12-22T20:43:44.565328+00:00", "meta": {"OBJECT_NAME": "TRANSPORTER-15 CF", "OBJECT_ID": "2025-276CF", "EPOCH": "2025-12-22T11:56:13.349472", "MEAN_MOTION": 15.17096042, "ECCENTRICITY": 0.00020655, "INCLINATION": 97.4403, "RA_OF_ASC_NODE": 68.0894, "ARG_OF_PERICENTER": 115.4217, "MEAN_ANOMALY": 244.723, "EPHEMERIS_TYPE": 0, "CLASSIFICATION_TYPE": "U", "NORAD_CAT_ID": 66743, "ELEMENT_SET_NO": 999, "REV_AT_EPOCH": 360, "BSTAR": -0.013065325, "MEAN_MOTION_DOT": -0.0025008, "MEAN_MOTION_DDOT": 0}, "tle": {"line1": "1 66743U 25276CF  25356.49737673 -.00250080  00000+0 -13065-1 0  9997", "line2": "2 66743  97.4403  68.0894 0002065 115.4217 244.7230 15.17096042  3600"}}, "geometry": {"type": "Point", "coordinates": [-114.19832539371383, -19.465149757965513]}}, {"type": "Feature", "properties": {"norad_id": 66744, "name": "TRANSPORTER-15 CG", "group": "last-30-days", "lat": -19.49261106024367, "lon": -114.19347391459321, "alt_km": 504.47403573974043, "timestamp": "2025-12-22T20:43:44.565340+00:00", "meta": {"OBJECT_NAME": "TRANSPORTER-15 CG", "OBJECT_ID": "2025-276CG", "EPOCH": "2025-12-22T11:56:56.220288", "MEAN_MOTION": 15.19104964, "ECCENTRICITY": 0.00129264, "INCLINATION": 97.4362, "RA_OF_ASC_NODE": 68.0963, "ARG_OF_PERICENTER": 206.4013, "MEAN_ANOMALY": 153.6564, "EPHEMERIS_TYPE": 0, "CLASSIFICATION_TYPE": "U", "NORAD_CAT_ID": 66744, "ELEMENT_SET_NO": 999, "REV_AT_EPOCH": 360, "BSTAR": 0.0093691454, "MEAN_MOTION_DOT": 0.00202272, "MEAN_MOTION_DDOT": 0}, "tle": {"line1": "1 66744U 25276CG  25356.49787292  .00202272  00000+0  93691-2 0  9992", "line2": "2 66744  97.4362  68.0963 0012926 206.4013 153.6564 15.19104964  3607"}}, "geometry": {"type": "Point", "coordinates": [-114.19347391459321, -19.49261106024367]}}, {"type": "Feature", "properties": {"norad_id": 66745, "name": "TRANSPORTER-15 CH", "group": "last-30-days", "lat": -18.967666488865483, "lon": -114.11817577466046, "alt_km": 518.0907327731911, "timestamp": "2025-12-22T20:43:44.565351+00:00", "meta": {"OBJECT_NAME": "TRANSPORTER-15 CH", "OBJECT_ID": "2025-276CH", "EPOCH": "2025-12-22T11:56:28.947264", "MEAN_MOTION": 15.17420526, "ECCENTRICITY": 0.00014288, "INCLINATION": 97.4416, "RA_OF_ASC_NODE": 68.0969, "ARG_OF_PERICENTER": 243.1934, "MEAN_ANOMALY": 116.9154, "EPHEMERIS_TYPE": 0, "CLASSIFICATION_TYPE": "U", "NORAD_CAT_ID": 66745, "ELEMENT_SET_NO": 999, "REV_AT_EPOCH": 360, "BSTAR": 0.00019780169, "MEAN_MOTION_DOT": 3.889e-05, "MEAN_MOTION_DDOT": 0}, "tle": {"line1": "1 66745U 25276CH  25356.49755726  .00003889  00000+0  19780-3 0  9991", "line2": "2 66745  97.4416  68.0969 0001428 243.1934 116.9154 15.17420526  3609"}}, "geometry": {"type": "Point", "coordinates": [-114.11817577466046, -18.967666488865483]}}, {"type": "Feature", "properties": {"norad_id": 66746, "name": "TRANSPORTER-15 CJ", "group": "last-30-days", "lat": -21.095085832461855, "lon": -114.43735330977412, "alt_km": 517.757532002066, "timestamp": "2025-12-22T20:43:44.565363+00:00", "meta": {"OBJECT_NAME": "TRANSPORTER-15 CJ", "OBJECT_ID": "2025-276CJ", "EPOCH": "2025-12-22T10:20:58.283232", "MEAN_MOTION": 15.17466775, "ECCENTRICITY": 0.00025324, "INCLINATION": 97.4408, "RA_OF_ASC_NODE": 68.0277, "ARG_OF_PERICENTER": 254.7861, "MEAN_ANOMALY": 105.3092, "EPHEMERIS_TYPE": 0, "CLASSIFICATION_TYPE": "U", "NORAD_CAT_ID": 66746, "ELEMENT_SET_NO": 999, "REV_AT_EPOCH": 359, "BSTAR": 0.00067533479, "MEAN_MOTION_DOT": 0.00013472, "MEAN_MOTION_DDOT": 0}, "tle": {"line1": "1 66746U 25276CJ  25356.43123013  .00013472  00000+0  67533-3 0  9992", "line2": "2 66746  97.4408  68.0277 0002532 254.7861 105.3092 15.17466775  3594"}}, "geometry": {"type": "Point", "coordinates": [-114.43735330977412, -21.095085832461855]}}]}